{"type":"FeatureCollection", "features": [
{"type":"Feature","geometry":{"type":"Polygon","coordinates":[[[-98.9789,19.0742],[-98.9606,19.3254],[-99.0642,19.4987],[-99.2046,19.5149],[-99.3393,19.2676],[-99.2791,19.1317],[-99.062,19.0488],[-98.9789,19.0742]]]},"properties":{"id":"MX-CMX","name":"Ciudad de México","inegi":9}},
{"type":"Feature","geometry":{"type":"Polygon","coordinates":[[[-99.4943,18.7203],[-99.7093,18.7689],[-99.786,18.6394],[-99.9429,18.5897],[-100.2579,18.4286],[-100.4868,18.6399],[-100.4221,18.7632],[-100.6133,18.8869],[-100.7905,18.8254],[-100.7445,18.5181],[-100.5908,18.4146],[-100.6428,18.3462],[-100.7933,18.4772],[-100.9667,18.4537],[-101.2811,18.5446],[-101.5014,18.487],[-101.639,18.6023],[-101.8796,18.5392],[-101.8622,18.2884],[-101.9782,18.2071],[-102.1316,18.1889],[-102.1845,18.0616],[-102.1373,17.9401],[-101.968,17.9683],[-101.7842,17.8645],[-101.6428,17.6673],[-101.4434,17.5258],[-101.2057,17.4283],[-101.0339,17.2674],[-99.9597,16.8933],[-99.7543,16.7409],[-99.455,16.6816],[-98.9076,16.5346],[-98.7758,16.5554],[-98.5526,16.316],[-98.3497,16.445],[-98.3954,16.5468],[-98.2058,16.5859],[-98.0724,16.8735],[-98.0987,17.0839],[-98.2033,17.2161],[-98.3228,17.2747],[-98.312,17.4774],[-98.461,17.6304],[-98.4943,17.7728],[-98.4249,17.8657],[-98.4341,17.9838],[-98.6449,17.9334],[-98.8699,18.0571],[-98.8851,18.1669],[-99.0005,18.1902],[-99.0661,18.3326],[-99.1393,18.4641],[-99.3574,18.4677],[-99.4943,18.7203]]]},"properties":{"id":"MX-GRO","name":"Guerrero","inegi":12}},
{"type":"Feature","geometry":{"type":"Polygon","coordinates":[[[-99.8592,20.2684],[-99.9419,20.1189],[-100.1378,20.0443],[-100.1499,19.7275],[-100.2652,19.662],[-100.1955,19.4462],[-100.3128,19.3623],[-100.4117,19.0633],[-100.5277,19.0104],[-100.6133,18.8869],[-100.4221,18.7632],[-100.4868,18.6399],[-100.2579,18.4286],[-99.9429,18.5897],[-99.786,18.6394],[-99.7093,18.7689],[-99.4943,18.7203],[-99.4294,18.8776],[-99.313,18.948],[-99.2791,19.1317],[-99.3393,19.2676],[-99.2046,19.5149],[-99.0642,19.4987],[-98.9606,19.3254],[-98.9789,19.0742],[-98.836,18.95],[-98.6328,19.0155],[-98.6531,19.4658],[-98.6655,19.6062],[-98.597,19.7657],[-98.6718,19.8535],[-98.8705,19.895],[-98.9466,20.0272],[-99.1425,20.027],[-99.3435,19.7802],[-99.436,19.9032],[-99.5191,20.1482],[-99.721,20.1678],[-99.8592,20.2684]]]},"properties":{"id":"MX-MEX","name":"Estado de México","inegi":15}},
{"type":"Feature","geometry":{"type":"Polygon","coordinates":[[[-98.9789,19.0742],[-99.062,19.0488],[-99.2791,19.1317],[-99.313,18.948],[-99.4294,18.8776],[-99.4943,18.7203],[-99.3574,18.4677],[-99.1393,18.4641],[-99.0661,18.3326],[-98.9856,18.4199],[-98.7127,18.5852],[-98.7536,18.7427],[-98.6889,18.858],[-98.6328,19.0155],[-98.836,18.95],[-98.9789,19.0742]]]},"properties":{"id":"MX-MOR","name":"Morelos","inegi":17}},
{"type":"Feature","geometry":{"type":"Polygon","coordinates":[[[-106.9943,25.6622],[-107.0583,25.7573],[-107.2961,25.9248],[-107.3049,26.0763],[-107.4165,26.1412],[-107.789,26.1685],[-108.0128,26.439],[-107.9614,26.527],[-108.0517,26.6299],[-108.0061,26.761],[-108.0942,26.8705],[-108.2302,26.9058],[-108.2505,27.0409],[-108.5025,26.9873],[-108.6305,26.6767],[-108.8733,26.551],[-108.8382,26.4726],[-109.1003,26.3127],[-109.189,26.3337],[-109.2585,26.32],[-109.4477,25.949],[-109.3935,25.6373],[-109.2195,25.6233],[-109.0268,25.4441],[-108.5694,25.3148],[-108.4505,25.2565],[-108.2327,25.0266],[-108.0004,24.6539],[-107.194,24.102],[-106.8932,23.8417],[-106.8101,23.6517],[-106.6878,23.5604],[-106.4814,23.3267],[-106.4532,23.2414],[-105.8139,22.6439],[-105.7587,22.5377],[-105.6605,22.5863],[-105.4668,22.5053],[-105.4389,22.5879],[-105.5232,22.7731],[-105.3923,23.084],[-105.6449,23.1428],[-105.643,23.2754],[-105.8117,23.6111],[-105.9093,23.5902],[-105.8675,23.8752],[-106.0031,24.1469],[-106.1524,24.3388],[-106.2688,24.3748],[-106.5173,24.2869],[-106.7062,24.6652],[-107.13,25.0531],[-107.1252,25.1864],[-107.2102,25.417],[-106.9943,25.6622]]]},"properties":{"id":"MX-SIN","name":"Sinaloa","inegi":25}},
{"type":"Feature","geometry":{"type":"MultiPolygon","coordinates":[[[[-115.2138,28.3751],[-115.2417,28.2222],[-115.3504,28.1161],[-115.185,28.0321],[-115.1564,28.1409],[-115.2138,28.3751]]],[[[-113.5139,29.5513],[-113.5915,29.4538],[-113.4958,29.2834],[-113.3009,29.1451],[-113.1747,29.1277],[-113.1734,29.2885],[-113.3433,29.2961],[-113.3858,29.4601],[-113.5139,29.5513]]],[[[-114.8135,32.4937],[-114.7196,32.7187],[-115.8795,32.6361],[-117.1236,32.5342],[-117.0247,32.2687],[-116.9233,32.2278],[-116.8814,32.0206],[-116.6272,31.8606],[-116.69,31.5713],[-116.5004,31.4105],[-116.309,31.1506],[-116.3394,30.9782],[-116.0709,30.8145],[-116.0265,30.6475],[-116.0474,30.4704],[-115.8027,30.28],[-115.7821,30.0932],[-115.6845,29.8264],[-115.6997,29.7551],[-115.5061,29.6171],[-115.2363,29.5009],[-115.1913,29.4305],[-114.9507,29.3616],[-114.6011,28.9862],[-114.4087,28.8687],[-114.3424,28.7552],[-114.1839,28.657],[-114.0448,28.4588],[-114.1237,28.2578],[-114.061,28.2142],[-114.2049,27.9999],[-112.7648,27.9999],[-112.7864,28.1962],[-112.8736,28.282],[-112.9043,28.4746],[-113.1043,28.5061],[-113.1947,28.7449],[-113.3246,28.8],[-113.4251,28.9498],[-113.557,28.9451],[-113.6375,29.2832],[-113.9953,29.578],[-114.5345,29.9681],[-114.6689,30.1983],[-114.6341,30.5011],[-114.6994,30.6359],[-114.7219,30.9369],[-114.8908,31.1528],[-114.88,31.3927],[-114.7903,31.6167],[-114.8068,31.8164],[-114.9659,31.9183],[-114.9758,32.1778],[-115.0531,32.2451],[-114.9396,32.4742],[-114.8135,32.4937]]]]},"properties":{"id":"MX-BCN","name":"Baja California","inegi":2}},
{"type":"Feature","geometry":{"type":"MultiPolygon","coordinates":[[[[-112.2922,29.2263],[-112.4777,29.1679],[-112.4894,28.9491],[-112.5842,28.8763],[-112.3097,28.747],[-112.2025,29.0149],[-112.2922,29.2263]]],[[[-114.8135,32.4937],[-114.9396,32.4742],[-115.0531,32.2451],[-114.9758,32.1778],[-114.9659,31.9183],[-114.8068,31.8164],[-114.5542,31.7355],[-114.3003,31.5612],[-114.0258,31.492],[-113.9399,31.6053],[-113.6407,31.4805],[-113.5465,31.2966],[-113.1018,31.1895],[-113.059,31.0724],[-113.1272,30.8105],[-113.0761,30.6643],[-112.8691,30.422],[-112.7541,30.1778],[-112.7474,29.9153],[-112.6656,29.8917],[-112.5801,29.7109],[-112.3785,29.4807],[-112.4209,29.3747],[-112.2412,29.3168],[-112.1509,28.9886],[-111.9014,28.787],[-111.9255,28.719],[-111.7651,28.5934],[-111.7125,28.459],[-111.4922,28.3871],[-111.2776,28.081],[-111.0649,27.9395],[-110.812,27.9243],[-110.5866,27.8306],[-110.6246,27.6095],[-110.6018,27.3165],[-110.4722,27.2845],[-110.2883,27.1481],[-109.985,27.064],[-109.8553,26.8011],[-109.7736,26.7107],[-109.4157,26.6619],[-109.2645,26.4913],[-109.2585,26.32],[-109.189,26.3337],[-109.1003,26.3127],[-108.8382,26.4726],[-108.8733,26.551],[-108.6305,26.6767],[-108.5025,26.9873],[-108.6023,27.0369],[-108.6648,27.2394],[-108.5912,27.3179],[-108.7659,27.7057],[-108.8958,27.7448],[-108.9266,27.9406],[-109.0318,28.0181],[-109.0753,28.2725],[-108.7513,28.2716],[-108.5215,28.3649],[-108.505,28.4933],[-108.5839,28.7399],[-108.6882,28.8763],[-108.7304,29.2692],[-108.6698,29.3074],[-108.6594,29.7162],[-108.6074,29.847],[-108.6204,30.2982],[-108.6781,30.5572],[-108.874,30.6234],[-108.9393,30.9076],[-108.8027,30.904],[-108.8483,31.195],[-108.7561,31.3325],[-109.7469,31.3339],[-111.0754,31.3326],[-112.3455,31.7348],[-113.5766,32.115],[-114.8135,32.4937]]]]},"properties":{"id":"MX-SON","name":"Sonora","inegi":26}},
{"type":"Feature","geometry":{"type":"Polygon","coordinates":[[[-114.2049,27.9999],[-114.5019,27.7719],[-114.9244,27.8341],[-115.0341,27.7611],[-114.8116,27.6265],[-114.7383,27.5249],[-114.5073,27.409],[-114.4882,27.2284],[-114.2943,27.1275],[-114.1304,27.115],[-114.003,26.9726],[-113.8746,26.9807],[-113.7338,26.7994],[-113.5769,26.7047],[-113.5107,26.7901],[-113.3722,26.7987],[-112.9782,26.5337],[-112.498,26.2314],[-112.4076,26.2444],[-112.3087,26.0721],[-112.1921,25.9874],[-112.1008,25.7495],[-112.0976,25.4885],[-112.154,25.1872],[-112.2792,24.8311],[-112.1813,24.7703],[-112.1021,24.5588],[-111.7512,24.3518],[-111.5841,24.3684],[-111.4028,24.3086],[-111.0189,24.0909],[-110.683,23.7682],[-110.3733,23.5929],[-110.1593,23.2866],[-110.0991,23.0193],[-110.0186,22.9056],[-109.8946,22.8758],[-109.4556,23.2015],[-109.4252,23.4503],[-109.5184,23.5827],[-109.6877,23.6522],[-109.6997,23.7982],[-109.8214,23.9083],[-109.8287,24.0616],[-109.9881,24.0487],[-110.0081,24.1594],[-110.34,24.3146],[-110.3029,24.1813],[-110.5527,24.208],[-110.6772,24.3508],[-110.7403,24.6201],[-110.6573,24.8072],[-110.6855,24.884],[-110.9077,25.1455],[-111.0272,25.4511],[-111.3039,25.7706],[-111.3568,25.9681],[-111.3191,26.0769],[-111.4694,26.4133],[-111.5616,26.5557],[-111.5622,26.6972],[-111.8225,26.8962],[-112.0104,26.9613],[-111.9537,27.0964],[-112.0891,27.1308],[-112.3037,27.387],[-112.3601,27.5529],[-112.5953,27.6506],[-112.7718,27.8621],[-112.7648,27.9999],[-114.2049,27.9999]]]},"properties":{"id":"MX-BCS","name":"Baja California Sur","inegi":3}},
{"type":"Feature","geometry":{"type":"Polygon","coordinates":[[[-100.8,24.5563],[-100.9591,24.5424],[-101.1277,24.6232],[-101.2016,24.7654],[-101.3423,24.8132],[-101.4618,24.7367],[-101.6013,24.8356],[-101.7734,24.8756],[-101.8492,25.0177],[-102.2378,25.1184],[-102.4638,25.1159],[-102.4467,24.9995],[-102.6698,25.0664],[-102.673,24.9427],[-102.5665,24.902],[-102.4806,24.4277],[-102.8321,24.3848],[-103.0435,24.4664],[-103.0987,24.4017],[-103.4195,24.4302],[-103.5592,24.1983],[-103.8727,24.007],[-103.8185,23.9646],[-103.8905,23.5798],[-104.0651,23.4634],[-104.1739,22.9824],[-104.1114,22.8109],[-104.2214,22.7794],[-104.3491,22.4097],[-104.2924,22.3444],[-104.1948,22.5039],[-104.0518,22.4664],[-104.0261,22.7432],[-103.7548,22.7196],[-103.7738,22.6112],[-103.5852,22.5254],[-103.5726,22.4375],[-103.6841,22.1092],[-103.4499,22.1143],[-103.2993,22.2489],[-103.2857,22.4135],[-103.099,22.2924],[-103.1114,22.0143],[-103.266,21.9723],[-103.5028,21.8332],[-103.5551,21.5765],[-103.7016,21.4663],[-103.5957,21.1328],[-103.4185,21.1152],[-103.3472,21.0442],[-103.0584,21.0984],[-102.8372,21.3032],[-102.6429,21.3672],[-102.6318,21.5344],[-102.7652,21.5964],[-102.7456,21.72],[-102.8686,21.8606],[-102.6413,22.2284],[-102.4685,22.3517],[-102.3215,22.3886],[-102.0374,22.2987],[-102.026,22.1298],[-101.8618,22.0289],[-101.5702,21.917],[-101.5106,21.7988],[-101.4964,21.8099],[-101.374,21.9894],[-101.3246,22.2096],[-101.4162,22.2673],[-101.3746,22.4562],[-101.2935,22.5845],[-101.4111,22.7476],[-101.5677,22.6568],[-101.6561,22.5139],[-101.7981,22.4701],[-101.9462,22.6505],[-102.1921,22.8649],[-102.2143,23.1313],[-102.2964,23.3203],[-101.775,23.4476],[-101.193,23.9186],[-101.2168,24.1596],[-100.9455,24.2813],[-100.7423,24.4604],[-100.8,24.5563]]]},"properties":{"id":"MX-ZAC","name":"Zacatecas","inegi":32}},
{"type":"Feature","geometry":{"type":"Polygon","coordinates":[[[-103.6993,26.7252],[-104.0458,26.743],[-104.3152,26.7987],[-104.3308,26.6565],[-104.4347,26.6045],[-104.5745,26.3404],[-104.7479,26.4924],[-104.8988,26.5101],[-105.057,26.4193],[-105.102,26.5213],[-105.2649,26.4619],[-105.5492,26.5466],[-106.0472,26.8447],[-106.2199,26.6563],[-106.2646,26.4059],[-106.4329,26.204],[-106.4561,25.9726],[-106.5601,25.9126],[-106.5559,25.6915],[-106.6529,25.5587],[-106.8739,25.5716],[-106.9943,25.6622],[-107.2102,25.417],[-107.1252,25.1864],[-107.13,25.0531],[-106.7062,24.6652],[-106.5173,24.2869],[-106.2688,24.3748],[-106.1524,24.3388],[-106.0031,24.1469],[-105.8675,23.8752],[-105.9093,23.5902],[-105.8117,23.6111],[-105.643,23.2754],[-105.6449,23.1428],[-105.3923,23.084],[-105.2979,22.9542],[-105.0034,22.9769],[-104.9159,22.7483],[-105.0728,22.6565],[-104.9609,22.5053],[-104.8626,22.607],[-104.6569,22.5394],[-104.6553,22.4621],[-104.494,22.3762],[-104.3491,22.4097],[-104.2214,22.7794],[-104.1114,22.8109],[-104.1739,22.9824],[-104.0651,23.4634],[-103.8905,23.5798],[-103.8185,23.9646],[-103.8727,24.007],[-103.5592,24.1983],[-103.4195,24.4302],[-103.0987,24.4017],[-103.0435,24.4664],[-102.8321,24.3848],[-102.4806,24.4277],[-102.5665,24.902],[-102.673,24.9427],[-102.6698,25.0664],[-102.853,24.7718],[-103.0971,24.8265],[-103.2591,24.9644],[-103.5057,25.2766],[-103.3694,25.4165],[-103.4933,25.5383],[-103.3836,25.6398],[-103.3228,25.8252],[-103.3507,26.1423],[-103.2613,26.2845],[-103.3741,26.6023],[-103.6993,26.7252]]]},"properties":{"id":"MX-DUR","name":"Durango","inegi":10}},
{"type":"Feature","geometry":{"type":"Polygon","coordinates":[[[-103.3069,29.004],[-103.5542,29.1584],[-103.7193,29.1819],[-103.7833,29.2654],[-103.9704,29.2968],[-104.1624,29.3916],[-104.5447,29.6817],[-104.6826,29.9284],[-104.6867,30.1791],[-104.8592,30.3904],[-104.8665,30.4941],[-105.0075,30.6859],[-105.2177,30.8058],[-105.3191,30.8123],[-105.5562,30.9887],[-105.6044,31.0831],[-105.7743,31.1677],[-105.9553,31.365],[-106.2196,31.4816],[-106.3816,31.7322],[-106.5287,31.7839],[-108.2083,31.7837],[-108.2086,31.3332],[-108.7561,31.3325],[-108.8483,31.195],[-108.8027,30.904],[-108.9393,30.9076],[-108.874,30.6234],[-108.6781,30.5572],[-108.6204,30.2982],[-108.6074,29.847],[-108.6594,29.7162],[-108.6698,29.3074],[-108.7304,29.2692],[-108.6882,28.8763],[-108.5839,28.7399],[-108.505,28.4933],[-108.5215,28.3649],[-108.7513,28.2716],[-109.0753,28.2725],[-109.0318,28.0181],[-108.9266,27.9406],[-108.8958,27.7448],[-108.7659,27.7057],[-108.5912,27.3179],[-108.6648,27.2394],[-108.6023,27.0369],[-108.5025,26.9873],[-108.2505,27.0409],[-108.2302,26.9058],[-108.0942,26.8705],[-108.0061,26.761],[-108.0517,26.6299],[-107.9614,26.527],[-108.0128,26.439],[-107.789,26.1685],[-107.4165,26.1412],[-107.3049,26.0763],[-107.2961,25.9248],[-107.0583,25.7573],[-106.9943,25.6622],[-106.8739,25.5716],[-106.6529,25.5587],[-106.5559,25.6915],[-106.5601,25.9126],[-106.4561,25.9726],[-106.4329,26.204],[-106.2646,26.4059],[-106.2199,26.6563],[-106.0472,26.8447],[-105.5492,26.5466],[-105.2649,26.4619],[-105.102,26.5213],[-105.057,26.4193],[-104.8988,26.5101],[-104.7479,26.4924],[-104.5745,26.3404],[-104.4347,26.6045],[-104.3308,26.6565],[-104.3152,26.7987],[-104.0458,26.743],[-103.6993,26.7252],[-103.8521,26.9347],[-103.745,27.0227],[-103.8769,27.3114],[-103.8547,27.5496],[-103.8816,27.7391],[-103.9599,27.8353],[-103.8673,28.1121],[-103.6429,28.5124],[-103.5146,28.665],[-103.3069,29.004]]]},"properties":{"id":"MX-CHH","name":"Chihuahua","inegi":8}},
{"type":"Feature","geometry":{"type":"Polygon","coordinates":[[[-103.4889,18.9648],[-103.5228,19.0659],[-103.4863,19.3378],[-103.6157,19.4749],[-103.8214,19.4109],[-104.062,19.4976],[-104.1228,19.3205],[-104.5549,19.2365],[-104.6902,19.1764],[-104.3095,19.0839],[-104.3355,19.0222],[-103.9713,18.8644],[-103.738,18.6839],[-103.6198,18.8931],[-103.4889,18.9648]]]},"properties":{"id":"MX-COL","name":"Colima","inegi":6}},
{"type":"Feature","geometry":{"type":"Polygon","coordinates":[[[-104.3491,22.4097],[-104.494,22.3762],[-104.6553,22.4621],[-104.6569,22.5394],[-104.8626,22.607],[-104.9609,22.5053],[-105.0728,22.6565],[-104.9159,22.7483],[-105.0034,22.9769],[-105.2979,22.9542],[-105.3923,23.084],[-105.5232,22.7731],[-105.4389,22.5879],[-105.4668,22.5053],[-105.6605,22.5863],[-105.7587,22.5377],[-105.6858,22.3777],[-105.637,21.9741],[-105.4456,21.6309],[-105.1885,21.4462],[-105.2392,21.3619],[-105.2411,21.0519],[-105.4513,20.8764],[-105.4941,20.7892],[-105.2814,20.6719],[-105.0883,20.9231],[-104.9688,20.9091],[-104.8357,21.0193],[-104.5035,20.8418],[-104.3504,20.8116],[-104.2052,20.9597],[-104.2195,21.1764],[-103.8185,21.249],[-103.7501,21.4754],[-103.9234,21.5896],[-103.8905,21.6993],[-104.1967,21.8506],[-104.1739,21.9708],[-104.294,22.0028],[-104.365,22.1125],[-104.2924,22.3444],[-104.3491,22.4097]]]},"properties":{"id":"MX-NAY","name":"Nayarit","inegi":18}},
{"type":"Feature","geometry":{"type":"Polygon","coordinates":[[[-100.3508,20.2884],[-100.3629,19.9899],[-100.6605,19.9645],[-100.747,19.9128],[-100.909,19.9621],[-101.0805,20.0829],[-101.2016,20.0258],[-101.4025,20.0449],[-101.4599,20.3235],[-101.6273,20.3033],[-101.6859,20.2184],[-101.9148,20.1942],[-102.0108,20.3793],[-102.0964,20.384],[-102.2536,20.3355],[-102.4324,20.3409],[-102.7846,20.1374],[-102.9988,20.126],[-103.0502,19.9965],[-102.7842,19.9512],[-102.8197,19.7777],[-102.7155,19.4984],[-102.5446,19.4332],[-102.6708,19.213],[-102.7538,19.2556],[-102.9605,19.1739],[-103.125,18.9302],[-103.2239,19.0239],[-103.4889,18.9648],[-103.6198,18.8931],[-103.738,18.6839],[-103.5798,18.5017],[-103.492,18.3295],[-103.2962,18.2496],[-102.9858,18.1714],[-102.7186,18.0616],[-102.1373,17.9401],[-102.1845,18.0616],[-102.1316,18.1889],[-101.9782,18.2071],[-101.8622,18.2884],[-101.8796,18.5392],[-101.639,18.6023],[-101.5014,18.487],[-101.2811,18.5446],[-100.9667,18.4537],[-100.7933,18.4772],[-100.6428,18.3462],[-100.5908,18.4146],[-100.7445,18.5181],[-100.7905,18.8254],[-100.6133,18.8869],[-100.5277,19.0104],[-100.4117,19.0633],[-100.3128,19.3623],[-100.1955,19.4462],[-100.2652,19.662],[-100.1499,19.7275],[-100.1378,20.0443],[-100.1816,20.2051],[-100.3508,20.2884]]]},"properties":{"id":"MX-MIC","name":"Michoacán","inegi":16}},
{"type":"Feature","geometry":{"type":"Polygon","coordinates":[[[-102.7456,21.72],[-102.7652,21.5964],[-102.6318,21.5344],[-102.6429,21.3672],[-102.8372,21.3032],[-103.0584,21.0984],[-103.3472,21.0442],[-103.4185,21.1152],[-103.5957,21.1328],[-103.7016,21.4663],[-103.5551,21.5765],[-103.5028,21.8332],[-103.266,21.9723],[-103.1114,22.0143],[-103.099,22.2924],[-103.2857,22.4135],[-103.2993,22.2489],[-103.4499,22.1143],[-103.6841,22.1092],[-103.5726,22.4375],[-103.5852,22.5254],[-103.7738,22.6112],[-103.7548,22.7196],[-104.0261,22.7432],[-104.0518,22.4664],[-104.1948,22.5039],[-104.2924,22.3444],[-104.365,22.1125],[-104.294,22.0028],[-104.1739,21.9708],[-104.1967,21.8506],[-103.8905,21.6993],[-103.9234,21.5896],[-103.7501,21.4754],[-103.8185,21.249],[-104.2195,21.1764],[-104.2052,20.9597],[-104.3504,20.8116],[-104.5035,20.8418],[-104.8357,21.0193],[-104.9688,20.9091],[-105.0883,20.9231],[-105.2814,20.6719],[-105.3257,20.5123],[-105.6145,20.4712],[-105.6947,20.4097],[-105.5594,20.2322],[-105.5052,20.0116],[-105.262,19.6795],[-105.0893,19.5602],[-105.0322,19.3892],[-104.8271,19.3078],[-104.6902,19.1764],[-104.5549,19.2365],[-104.1228,19.3205],[-104.062,19.4976],[-103.8214,19.4109],[-103.6157,19.4749],[-103.4863,19.3378],[-103.5228,19.0659],[-103.4889,18.9648],[-103.2239,19.0239],[-103.125,18.9302],[-102.9605,19.1739],[-102.7538,19.2556],[-102.6708,19.213],[-102.5446,19.4332],[-102.7155,19.4984],[-102.8197,19.7777],[-102.7842,19.9512],[-103.0502,19.9965],[-102.9988,20.126],[-102.7846,20.1374],[-102.4324,20.3409],[-102.2536,20.3355],[-102.0964,20.384],[-101.968,20.6636],[-102.0802,20.828],[-101.9373,20.9557],[-101.7686,21.2577],[-101.6434,21.2994],[-101.5892,21.4647],[-101.6409,21.5287],[-101.5106,21.7988],[-101.5702,21.917],[-101.8618,22.0289],[-101.8805,21.9101],[-102.0387,21.8532],[-102.142,21.7053],[-102.3259,21.622],[-102.6337,21.7673],[-102.7456,21.72]]]},"properties":{"id":"MX-JAL","name":"Jalisco","inegi":14}},
{"type":"Feature","geometry":{"type":"Polygon","coordinates":[[[-91.4397,17.251],[-91.4197,17.3741],[-91.672,17.444],[-91.6784,17.6713],[-91.8216,17.7319],[-91.7795,17.8497],[-91.9865,17.923],[-92.3507,17.6178],[-92.5203,17.5731],[-92.7539,17.3434],[-92.8597,17.5004],[-92.9447,17.4831],[-93.0445,17.62],[-93.0131,17.7988],[-93.145,17.9321],[-93.3412,17.9294],[-93.3606,17.6649],[-93.4839,17.5507],[-93.6081,17.3149],[-93.7726,17.2457],[-93.8677,17.1368],[-94.1394,16.4619],[-94.0509,16.3295],[-94.1096,16.1789],[-94.0002,16.0029],[-93.7019,15.8668],[-93.3336,15.5918],[-92.9311,15.2312],[-92.4093,14.696],[-92.2267,14.5321],[-92.1459,14.6634],[-92.1814,14.8475],[-92.1488,14.9889],[-92.0594,15.0702],[-92.2099,15.2612],[-91.7316,16.0738],[-90.4409,16.0742],[-90.4235,16.4252],[-90.6457,16.5195],[-90.6574,16.6379],[-90.8045,16.7989],[-91.0644,16.9251],[-91.2603,17.103],[-91.278,17.179],[-91.4397,17.251]]]},"properties":{"id":"MX-CHP","name":"Chiapas","inegi":7}},
{"type":"Feature","geometry":{"type":"Polygon","coordinates":[[[-90.9877,17.8154],[-90.988,17.9623],[-91.2178,17.9748],[-91.5345,18.1462],[-91.6112,18.0952],[-91.6387,17.8739],[-91.9668,18.0158],[-92.1608,18.1553],[-92.176,18.4583],[-92.4144,18.4873],[-92.4692,18.6508],[-92.6873,18.6192],[-92.9028,18.4415],[-93.3945,18.4337],[-93.5266,18.4077],[-94.1305,18.2127],[-94.0744,18.0591],[-94.0836,17.8697],[-93.8053,17.6891],[-93.649,17.5553],[-93.6953,17.3874],[-93.6081,17.3149],[-93.4839,17.5507],[-93.3606,17.6649],[-93.3412,17.9294],[-93.145,17.9321],[-93.0131,17.7988],[-93.0445,17.62],[-92.9447,17.4831],[-92.8597,17.5004],[-92.7539,17.3434],[-92.5203,17.5731],[-92.3507,17.6178],[-91.9865,17.923],[-91.7795,17.8497],[-91.8216,17.7319],[-91.6784,17.6713],[-91.672,17.444],[-91.4197,17.3741],[-91.4397,17.251],[-90.9874,17.251],[-90.9877,17.8154]]]},"properties":{"id":"MX-TAB","name":"Tabasco","inegi":27}},
{"type":"Feature","geometry":{"type":"Polygon","coordinates":[[[-93.8677,17.1368],[-94.9229,17.1935],[-94.8909,17.311],[-95.0767,17.3729],[-95.2532,17.6013],[-95.239,17.7393],[-95.4776,17.5878],[-95.7027,17.5187],[-95.8954,17.7044],[-95.8,17.9497],[-95.8336,18.1291],[-96.2178,18.1618],[-96.4571,18.5703],[-96.6834,18.6694],[-96.7287,18.3957],[-96.8552,18.2413],[-97.0422,18.1565],[-97.3091,18.156],[-97.4698,18.027],[-97.5576,18.0469],[-97.6438,18.2795],[-97.7973,18.2829],[-97.8607,18.1025],[-97.77,17.9972],[-97.8191,17.9146],[-98.0306,17.9919],[-98.247,17.8786],[-98.4249,17.8657],[-98.4943,17.7728],[-98.461,17.6304],[-98.312,17.4774],[-98.3228,17.2747],[-98.2033,17.2161],[-98.0987,17.0839],[-98.0724,16.8735],[-98.2058,16.5859],[-98.3954,16.5468],[-98.3497,16.445],[-98.5526,16.316],[-98.2258,16.2366],[-97.7906,15.9858],[-97.2739,15.9385],[-97.0622,15.8601],[-96.8524,15.7373],[-96.5544,15.6582],[-96.2374,15.6824],[-96.1217,15.7606],[-95.7661,15.8965],[-95.4355,15.9761],[-95.2332,16.1584],[-94.832,16.2146],[-94.5403,16.1918],[-94.2024,16.0967],[-94.0002,16.0029],[-94.1096,16.1789],[-94.0509,16.3295],[-94.1394,16.4619],[-93.8677,17.1368]]]},"properties":{"id":"MX-OAX","name":"Oaxaca","inegi":20}},
{"type":"Feature","geometry":{"type":"Polygon","coordinates":[[[-99.7777,21.4951],[-99.9441,21.4614],[-100.1806,21.6502],[-100.4513,21.6662],[-100.534,21.5424],[-100.7176,21.55],[-100.9816,21.753],[-101.1613,21.7575],[-101.3661,21.8393],[-101.4964,21.8099],[-101.5106,21.7988],[-101.6409,21.5287],[-101.5892,21.4647],[-101.6434,21.2994],[-101.7686,21.2577],[-101.9373,20.9557],[-102.0802,20.828],[-101.968,20.6636],[-102.0964,20.384],[-102.0108,20.3793],[-101.9148,20.1942],[-101.6859,20.2184],[-101.6273,20.3033],[-101.4599,20.3235],[-101.4025,20.0449],[-101.2016,20.0258],[-101.0805,20.0829],[-100.909,19.9621],[-100.747,19.9128],[-100.6605,19.9645],[-100.3629,19.9899],[-100.3508,20.2884],[-100.47,20.3868],[-100.489,20.5945],[-100.5965,20.7172],[-100.47,20.9071],[-100.0925,20.9318],[-99.9866,21.2183],[-99.8294,21.1579],[-99.6988,21.2676],[-99.7945,21.3574],[-99.7777,21.4951]]]},"properties":{"id":"MX-GUA","name":"Guanajuato","inegi":11}},
{"type":"Feature","geometry":{"type":"Polygon","coordinates":[[[-101.8618,22.0289],[-102.026,22.1298],[-102.0374,22.2987],[-102.3215,22.3886],[-102.4685,22.3517],[-102.6413,22.2284],[-102.8686,21.8606],[-102.7456,21.72],[-102.6337,21.7673],[-102.3259,21.622],[-102.142,21.7053],[-102.0387,21.8532],[-101.8805,21.9101],[-101.8618,22.0289]]]},"properties":{"id":"MX-AGU","name":"Aguascalientes","inegi":1}},
{"type":"Feature","geometry":{"type":"Polygon","coordinates":[[[-99.055,21.2823],[-99.1885,21.6698],[-99.3054,21.5329],[-99.5061,21.4187],[-99.7467,21.5782],[-99.7777,21.4951],[-99.7945,21.3574],[-99.6988,21.2676],[-99.8294,21.1579],[-99.9866,21.2183],[-100.0925,20.9318],[-100.47,20.9071],[-100.5965,20.7172],[-100.489,20.5945],[-100.47,20.3868],[-100.3508,20.2884],[-100.1816,20.2051],[-100.1378,20.0443],[-99.9419,20.1189],[-99.8592,20.2684],[-99.8281,20.5425],[-99.5023,20.659],[-99.5486,20.7372],[-99.4043,20.9289],[-99.3463,21.101],[-99.055,21.1595],[-99.055,21.2823]]]},"properties":{"id":"MX-QUE","name":"Querétaro","inegi":22}},
{"type":"Feature","geometry":{"type":"Polygon","coordinates":[[[-100.1042,23.2315],[-100.3743,23.2654],[-100.5175,23.421],[-100.4456,23.6773],[-100.5629,23.9197],[-100.5172,24.1398],[-100.6332,24.226],[-100.6038,24.4013],[-100.7423,24.4604],[-100.9455,24.2813],[-101.2168,24.1596],[-101.193,23.9186],[-101.775,23.4476],[-102.2964,23.3203],[-102.2143,23.1313],[-102.1921,22.8649],[-101.9462,22.6505],[-101.7981,22.4701],[-101.6561,22.5139],[-101.5677,22.6568],[-101.4111,22.7476],[-101.2935,22.5845],[-101.3746,22.4562],[-101.4162,22.2673],[-101.3246,22.2096],[-101.374,21.9894],[-101.4964,21.8099],[-101.3661,21.8393],[-101.1613,21.7575],[-100.9816,21.753],[-100.7176,21.55],[-100.534,21.5424],[-100.4513,21.6662],[-100.1806,21.6502],[-99.9441,21.4614],[-99.7777,21.4951],[-99.7467,21.5782],[-99.5061,21.4187],[-99.3054,21.5329],[-99.1885,21.6698],[-99.055,21.2823],[-98.9453,21.3114],[-98.8826,21.1795],[-98.6911,21.1673],[-98.5044,21.3894],[-98.6024,21.5434],[-98.6195,21.6711],[-98.4547,21.7657],[-98.5485,21.8599],[-98.3447,22.2222],[-98.6708,22.4057],[-98.8214,22.356],[-99.061,22.4153],[-99.2322,22.4124],[-99.3298,22.6348],[-99.4947,22.6208],[-99.6826,22.6812],[-100.0224,22.726],[-100.0995,23.0078],[-100.1042,23.2315]]]},"properties":{"id":"MX-SLP","name":"San Luis Potosí","inegi":24}},
{"type":"Feature","geometry":{"type":"Polygon","coordinates":[[[-98.6531,19.4658],[-98.5418,19.4607],[-98.3691,19.2261],[-98.1662,19.105],[-98.0423,19.2101],[-97.9285,19.1643],[-97.6315,19.3554],[-97.8828,19.5722],[-98.2553,19.7186],[-98.3821,19.6093],[-98.6655,19.6062],[-98.6531,19.4658]]]},"properties":{"id":"MX-TLA","name":"Tlaxcala","inegi":29}},
{"type":"Feature","geometry":{"type":"Polygon","coordinates":[[[-97.7206,20.7769],[-97.8794,20.8343],[-97.8952,20.6232],[-97.9852,20.517],[-98.1922,20.258],[-98.0981,20.1438],[-98.3149,19.8543],[-98.2553,19.7186],[-97.8828,19.5722],[-97.6315,19.3554],[-97.9285,19.1643],[-98.0423,19.2101],[-98.1662,19.105],[-98.3691,19.2261],[-98.5418,19.4607],[-98.6531,19.4658],[-98.6328,19.0155],[-98.6889,18.858],[-98.7536,18.7427],[-98.7127,18.5852],[-98.9856,18.4199],[-99.0661,18.3326],[-99.0005,18.1902],[-98.8851,18.1669],[-98.8699,18.0571],[-98.6449,17.9334],[-98.4341,17.9838],[-98.4249,17.8657],[-98.247,17.8786],[-98.0306,17.9919],[-97.8191,17.9146],[-97.77,17.9972],[-97.8607,18.1025],[-97.7973,18.2829],[-97.6438,18.2795],[-97.5576,18.0469],[-97.4698,18.027],[-97.3091,18.156],[-97.0422,18.1565],[-96.8552,18.2413],[-96.7287,18.3957],[-96.8996,18.5486],[-97.0812,18.4635],[-97.1424,18.5934],[-97.3491,18.716],[-97.2473,18.9187],[-97.2606,19.0986],[-97.0755,19.1579],[-96.9861,19.2801],[-97.2007,19.309],[-97.338,19.3925],[-97.4343,19.5884],[-97.3262,19.6789],[-97.3021,19.8766],[-97.1643,20.1518],[-97.4454,20.2462],[-97.4955,20.1367],[-97.7418,20.1929],[-97.6743,20.411],[-97.576,20.491],[-97.7494,20.6432],[-97.7206,20.7769]]]},"properties":{"id":"MX-PUE","name":"Puebla","inegi":21}},
{"type":"Feature","geometry":{"type":"Polygon","coordinates":[[[-97.9852,20.517],[-98.1009,20.6139],[-98.4588,20.3337],[-98.5973,20.4957],[-98.4639,20.667],[-98.4252,20.8496],[-98.248,20.7892],[-98.1507,21.085],[-98.2962,21.1877],[-98.4223,21.1632],[-98.5441,21.2639],[-98.5044,21.3894],[-98.6911,21.1673],[-98.8826,21.1795],[-98.9453,21.3114],[-99.055,21.2823],[-99.055,21.1595],[-99.3463,21.101],[-99.4043,20.9289],[-99.5486,20.7372],[-99.5023,20.659],[-99.8281,20.5425],[-99.8592,20.2684],[-99.721,20.1678],[-99.5191,20.1482],[-99.436,19.9032],[-99.3435,19.7802],[-99.1425,20.027],[-98.9466,20.0272],[-98.8705,19.895],[-98.6718,19.8535],[-98.597,19.7657],[-98.6655,19.6062],[-98.3821,19.6093],[-98.2553,19.7186],[-98.3149,19.8543],[-98.0981,20.1438],[-98.1922,20.258],[-97.9852,20.517]]]},"properties":{"id":"MX-HID","name":"Hidalgo","inegi":13}},
{"type":"Feature","geometry":{"type":"Polygon","coordinates":[[[-97.7846,22.2624],[-98.1066,22.3668],[-98.1928,22.4652],[-98.6708,22.4057],[-98.3447,22.2222],[-98.5485,21.8599],[-98.4547,21.7657],[-98.6195,21.6711],[-98.6024,21.5434],[-98.5044,21.3894],[-98.5441,21.2639],[-98.4223,21.1632],[-98.2962,21.1877],[-98.1507,21.085],[-98.248,20.7892],[-98.4252,20.8496],[-98.4639,20.667],[-98.5973,20.4957],[-98.4588,20.3337],[-98.1009,20.6139],[-97.9852,20.517],[-97.8952,20.6232],[-97.8794,20.8343],[-97.7206,20.7769],[-97.7494,20.6432],[-97.576,20.491],[-97.6743,20.411],[-97.7418,20.1929],[-97.4955,20.1367],[-97.4454,20.2462],[-97.1643,20.1518],[-97.3021,19.8766],[-97.3262,19.6789],[-97.4343,19.5884],[-97.338,19.3925],[-97.2007,19.309],[-96.9861,19.2801],[-97.0755,19.1579],[-97.2606,19.0986],[-97.2473,18.9187],[-97.3491,18.716],[-97.1424,18.5934],[-97.0812,18.4635],[-96.8996,18.5486],[-96.7287,18.3957],[-96.6834,18.6694],[-96.4571,18.5703],[-96.2178,18.1618],[-95.8336,18.1291],[-95.8,17.9497],[-95.8954,17.7044],[-95.7027,17.5187],[-95.4776,17.5878],[-95.239,17.7393],[-95.2532,17.6013],[-95.0767,17.3729],[-94.8909,17.311],[-94.9229,17.1935],[-93.8677,17.1368],[-93.7726,17.2457],[-93.6081,17.3149],[-93.6953,17.3874],[-93.649,17.5553],[-93.8053,17.6891],[-94.0836,17.8697],[-94.0744,18.0591],[-94.1305,18.2127],[-94.4658,18.1509],[-94.5974,18.1935],[-94.8164,18.5386],[-95.0253,18.5686],[-95.1819,18.7069],[-95.5255,18.7147],[-95.8628,18.8325],[-95.9708,19.052],[-96.0618,19.0651],[-96.1233,19.1946],[-96.2951,19.3223],[-96.4473,19.8446],[-96.7848,20.2433],[-97.1811,20.6707],[-97.4204,21.2308],[-97.3294,21.5205],[-97.3544,21.5933],[-97.5643,21.7706],[-97.7069,21.9707],[-97.7846,22.2624]]]},"properties":{"id":"MX-VER","name":"Veracruz","inegi":30}},
{"type":"Feature","geometry":{"type":"Polygon","coordinates":[[[-99.8433,27.7699],[-99.9993,27.6151],[-100.1885,27.7991],[-100.3508,27.6846],[-100.418,27.3936],[-100.6779,27.3348],[-100.8345,27.1952],[-100.5401,27.0473],[-100.5381,26.8085],[-100.6912,26.6137],[-100.7534,26.735],[-101.2067,26.3698],[-101.0475,26.1698],[-100.9166,26.0754],[-100.9055,25.9568],[-100.7813,25.6386],[-100.47,25.3377],[-100.2545,25.3068],[-100.3321,25.1863],[-100.592,25.255],[-100.8031,25.1653],[-100.8263,24.8351],[-100.8,24.5563],[-100.7423,24.4604],[-100.6038,24.4013],[-100.6332,24.226],[-100.5172,24.1398],[-100.5629,23.9197],[-100.4456,23.6773],[-100.5175,23.421],[-100.3743,23.2654],[-100.1042,23.2315],[-100.0801,23.3956],[-99.9216,23.379],[-99.9613,23.5569],[-99.8611,23.7744],[-99.5768,23.7755],[-99.4871,23.9605],[-99.657,24.1178],[-99.5901,24.3962],[-99.6097,24.6225],[-99.295,24.804],[-99.159,24.9165],[-99.1669,25.0466],[-98.9343,25.0728],[-98.4236,25.4474],[-98.5818,25.4894],[-98.5853,26.0179],[-98.8236,26.0474],[-98.901,25.9683],[-99.024,26.1041],[-99.1606,26.0612],[-99.1977,26.2585],[-99.4313,26.3511],[-99.397,26.5966],[-99.6183,26.7269],[-99.5898,26.8611],[-99.7343,26.9205],[-99.6503,27.0659],[-99.7492,27.289],[-99.7603,27.437],[-99.9264,27.5491],[-99.7283,27.6791],[-99.8433,27.7699]]]},"properties":{"id":"MX-NLE","name":"Nuevo León","inegi":19}},
{"type":"Feature","geometry":{"type":"Polygon","coordinates":[[[-99.8433,27.7699],[-99.8937,27.8994],[-100.0906,28.1481],[-100.2909,28.2751],[-100.3359,28.43],[-100.4966,28.6586],[-100.6646,29.0748],[-100.7949,29.2437],[-101.0044,29.365],[-101.0621,29.4643],[-101.2558,29.5209],[-101.4162,29.7462],[-101.7091,29.7617],[-101.8488,29.8066],[-102.0485,29.7857],[-102.3012,29.8777],[-102.3906,29.7828],[-102.691,29.7226],[-102.8093,29.5212],[-102.9177,29.191],[-102.9985,29.1748],[-103.1529,28.972],[-103.3069,29.004],[-103.5146,28.665],[-103.6429,28.5124],[-103.8673,28.1121],[-103.9599,27.8353],[-103.8816,27.7391],[-103.8547,27.5496],[-103.8769,27.3114],[-103.745,27.0227],[-103.8521,26.9347],[-103.6993,26.7252],[-103.3741,26.6023],[-103.2613,26.2845],[-103.3507,26.1423],[-103.3228,25.8252],[-103.3836,25.6398],[-103.4933,25.5383],[-103.3694,25.4165],[-103.5057,25.2766],[-103.2591,24.9644],[-103.0971,24.8265],[-102.853,24.7718],[-102.6698,25.0664],[-102.4467,24.9995],[-102.4638,25.1159],[-102.2378,25.1184],[-101.8492,25.0177],[-101.7734,24.8756],[-101.6013,24.8356],[-101.4618,24.7367],[-101.3423,24.8132],[-101.2016,24.7654],[-101.1277,24.6232],[-100.9591,24.5424],[-100.8,24.5563],[-100.8263,24.8351],[-100.8031,25.1653],[-100.592,25.255],[-100.3321,25.1863],[-100.2545,25.3068],[-100.47,25.3377],[-100.7813,25.6386],[-100.9055,25.9568],[-100.9166,26.0754],[-101.0475,26.1698],[-101.2067,26.3698],[-100.7534,26.735],[-100.6912,26.6137],[-100.5381,26.8085],[-100.5401,27.0473],[-100.8345,27.1952],[-100.6779,27.3348],[-100.418,27.3936],[-100.3508,27.6846],[-100.1885,27.7991],[-99.9993,27.6151],[-99.8433,27.7699]]]},"properties":{"id":"MX-COA","name":"Coahuila","inegi":5}},
{"type":"Feature","geometry":{"type":"Polygon","coordinates":[[[-97.7846,22.2624],[-97.8581,22.4764],[-97.8413,22.6719],[-97.7611,23.002],[-97.7691,23.3779],[-97.7038,24.3426],[-97.5646,24.9124],[-97.4464,25.2043],[-97.2023,25.6298],[-97.1465,25.9548],[-97.3481,25.9312],[-97.4527,25.8535],[-97.6372,26.0203],[-97.8017,26.0601],[-98.1922,26.0532],[-98.4626,26.2258],[-98.6655,26.2353],[-98.8037,26.3671],[-99.0816,26.3966],[-99.1679,26.537],[-99.268,26.8427],[-99.3783,26.9338],[-99.4791,27.4791],[-99.5999,27.6415],[-99.7283,27.6791],[-99.9264,27.5491],[-99.7603,27.437],[-99.7492,27.289],[-99.6503,27.0659],[-99.7343,26.9205],[-99.5898,26.8611],[-99.6183,26.7269],[-99.397,26.5966],[-99.4313,26.3511],[-99.1977,26.2585],[-99.1606,26.0612],[-99.024,26.1041],[-98.901,25.9683],[-98.8236,26.0474],[-98.5853,26.0179],[-98.5818,25.4894],[-98.4236,25.4474],[-98.9343,25.0728],[-99.1669,25.0466],[-99.159,24.9165],[-99.295,24.804],[-99.6097,24.6225],[-99.5901,24.3962],[-99.657,24.1178],[-99.4871,23.9605],[-99.5768,23.7755],[-99.8611,23.7744],[-99.9613,23.5569],[-99.9216,23.379],[-100.0801,23.3956],[-100.1042,23.2315],[-100.0995,23.0078],[-100.0224,22.726],[-99.6826,22.6812],[-99.4947,22.6208],[-99.3298,22.6348],[-99.2322,22.4124],[-99.061,22.4153],[-98.8214,22.356],[-98.6708,22.4057],[-98.1928,22.4652],[-98.1066,22.3668],[-97.7846,22.2624]]]},"properties":{"id":"MX-TAM","name":"Tamaulipas","inegi":28}},
{"type":"Feature","geometry":{"type":"MultiPolygon","coordinates":[[[[-87.5352,21.4902],[-87.9628,21.61],[-88.132,21.6251],[-88.2433,21.5627],[-88.6018,21.5258],[-88.8554,21.3963],[-89.6665,21.3032],[-90.0948,21.1555],[-90.3239,21.0199],[-90.4044,20.8465],[-90.387,20.5555],[-90.0675,20.425],[-90.0041,20.4868],[-89.5987,19.9979],[-89.5879,19.8745],[-89.4687,19.7002],[-89.2966,19.5511],[-88.9004,19.8612],[-88.6906,20.0896],[-88.4094,20.252],[-88.1368,20.2811],[-87.7444,20.6538],[-87.5333,20.9997],[-87.5352,21.4902]]],[[[-89.7299,22.6096],[-89.7394,22.4441],[-89.5841,22.5053],[-89.7299,22.6096]]]]},"properties":{"id":"MX-YUC","name":"Yucatán","inegi":31}},
{"type":"Feature","geometry":{"type":"Polygon","coordinates":[[[-89.2966,19.5511],[-89.4687,19.7002],[-89.5879,19.8745],[-89.5987,19.9979],[-90.0041,20.4868],[-90.0675,20.425],[-90.387,20.5555],[-90.4044,20.8465],[-90.5024,20.4977],[-90.4913,20.0609],[-90.4475,19.9599],[-90.6615,19.7586],[-90.7062,19.6497],[-90.7227,19.3592],[-90.8999,19.1834],[-91.1132,19.0353],[-91.4058,18.8818],[-91.4986,18.7905],[-91.9091,18.6361],[-91.9912,18.699],[-92.4692,18.6508],[-92.4144,18.4873],[-92.176,18.4583],[-92.1608,18.1553],[-91.9668,18.0158],[-91.6387,17.8739],[-91.6112,18.0952],[-91.5345,18.1462],[-91.2178,17.9748],[-90.988,17.9623],[-90.9877,17.8154],[-90.2456,17.8155],[-89.1521,17.8154],[-89.1524,17.9403],[-89.1432,18.1458],[-89.1467,19.4238],[-89.2966,19.5511]]]},"properties":{"id":"MX-CAM","name":"Campeche","inegi":4}},
{"type":"Feature","geometry":{"type":"MultiPolygon","coordinates":[[[[-86.7323,20.5654],[-86.9275,20.5512],[-87.0172,20.4117],[-86.899,20.344],[-86.7323,20.5654]]],[[[-89.1524,17.9403],[-89.0288,17.9972],[-88.8833,17.8963],[-88.7169,18.0603],[-88.6047,18.2415],[-88.5188,18.4621],[-88.327,18.4901],[-88.2496,18.4155],[-88.0303,18.4148],[-88.0303,18.1604],[-87.8442,18.1909],[-87.764,18.4179],[-87.7133,18.7067],[-87.5498,19.089],[-87.6832,19.205],[-87.636,19.3734],[-87.4404,19.4689],[-87.526,19.5405],[-87.7365,19.5855],[-87.5783,19.7904],[-87.4556,19.8741],[-87.4797,20.0416],[-87.4239,20.226],[-87.2467,20.4848],[-87.1291,20.5692],[-86.8736,20.8491],[-86.803,21.1597],[-86.8866,21.4034],[-86.9757,21.5467],[-87.2233,21.4312],[-87.5352,21.4902],[-87.5333,20.9997],[-87.7444,20.6538],[-88.1368,20.2811],[-88.4094,20.252],[-88.6906,20.0896],[-88.9004,19.8612],[-89.2966,19.5511],[-89.1467,19.4238],[-89.1432,18.1458],[-89.1524,17.9403]]]]},"properties":{"id":"MX-ROO","name":"Quintana Roo","inegi":23}}
]}